[136108haumea]
absolute_magnitude=0.1
albedo=0.73
color=1., 1., 1.
coord_func=comet_orbit
lighting=true
minor_planet_number=136108
name=Haumea
orbit_ArgOfPericenter=240.4149
orbit_AscendingNode=121.7879
orbit_Eccentricity=0.192475
orbit_Epoch=2456800.5
orbit_Inclination=28.1914
orbit_MeanAnomaly=208.1454
orbit_MeanMotion=0.0034754
orbit_SemiMajorAxis=43.16515
orbit_visualization_period=102953.93
parent=Sun
radius=3130
slope_parameter=0.15
tex_map=nomap.png
type=plutoid

[136199eris]
absolute_magnitude=-1.2
albedo=0.689
color=1., 1., 1.
coord_func=comet_orbit
halo=true
lighting=true
minor_planet_number=136199
name=Eris
oblateness=0.0
orbit_ArgOfPericenter=150.8963
orbit_AscendingNode=35.97928
orbit_Eccentricity=0.439631
orbit_Epoch=2456800.5
orbit_Inclination=43.9904
orbit_MeanAnomaly=203.90221
orbit_MeanMotion=0.001764
orbit_SemiMajorAxis=67.8376033
orbit_visualization_period=204376.01809
parent=Sun
radius=1300
rot_periode=8
slope_parameter=0.15
tex_halo=star16x16.png
tex_map=nomap.png
type=plutoid

[136472makemake]
absolute_magnitude=-0.4
albedo=0.78
color=1., 1., 1.
coord_func=comet_orbit
lighting=true
minor_planet_number=136472
name=Makemake
orbit_ArgOfPericenter=297.26536
orbit_AscendingNode=79.33065
orbit_Eccentricity=0.1570699
orbit_Epoch=2456800.5
orbit_Inclination=29.00975
orbit_MeanAnomaly=155.6677
orbit_MeanMotion=0.0031935
orbit_SemiMajorAxis=45.6693593
orbit_visualization_period=112549.05
parent=Sun
radius=1400
slope_parameter=0.15
tex_map=nomap.png
type=plutoid

[1566icarus]
absolute_magnitude=16.9
albedo=0.15
color=1., 1., 1.
coord_func=comet_orbit
lighting=false
minor_planet_number=1566
name=Icarus
orbit_ArgOfPericenter=31.3543
orbit_AscendingNode=88.0275
orbit_Eccentricity=0.826964
orbit_Epoch=2456800.5
orbit_Inclination=22.8301
orbit_MeanAnomaly=54.9592
orbit_MeanMotion=0.8806917
orbit_SemiMajorAxis=1.077921
parent=Sun
radius=2
slope_parameter=0.15
tex_map=nomap.png
type=asteroid

[1864daedalus]
absolute_magnitude=14.85
albedo=0.15
color=1., 1., 1.
coord_func=comet_orbit
lighting=false
minor_planet_number=1864
name=Daedalus
orbit_ArgOfPericenter=325.5669
orbit_AscendingNode=6.68
orbit_Eccentricity=0.614462
orbit_Epoch=2456800.5
orbit_Inclination=22.1964
orbit_MeanAnomaly=73.3071
orbit_MeanMotion=0.5581481
orbit_SemiMajorAxis=1.460954
parent=Sun
radius=4
slope_parameter=0.15
tex_map=nomap.png
type=asteroid

[1866sisyphus]
absolute_magnitude=12.4
albedo=0.15
color=1., 1., 1.
coord_func=comet_orbit
lighting=false
minor_planet_number=1866
name=Sisyphus
orbit_ArgOfPericenter=293.0455
orbit_AscendingNode=63.5606
orbit_Eccentricity=0.538294
orbit_Epoch=2456800.5
orbit_Inclination=41.1898
orbit_MeanAnomaly=352.0426
orbit_MeanMotion=0.3781781
orbit_SemiMajorAxis=1.893819
parent=Sun
radius=12
slope_parameter=0.15
tex_map=nomap.png
type=asteroid

[1ceres]
absolute_magnitude=3.34
albedo=0.113
color=1., 1., 1.
coord_func=comet_orbit
halo=true
lighting=true
minor_planet_number=1
name=Ceres
oblateness=0.0
orbit_ArgOfPericenter=72.29211
orbit_AscendingNode=80.32764
orbit_Eccentricity=0.0757973
orbit_Epoch=2456600.5
orbit_Inclination=10.59398
orbit_MeanAnomaly=10.55762
orbit_MeanMotion=0.21415869
orbit_SemiMajorAxis=2.7668073
orbit_visualization_period=1680.15
parent=Sun
radius=470
slope_parameter=0.12
tex_halo=star16x16.png
tex_map=nomap.png
type=asteroid

[20000varuna]
absolute_magnitude=3.6
albedo=0.15
color=1., 1., 1.
coord_func=comet_orbit
lighting=true
minor_planet_number=20000
name=Varuna
orbit_ArgOfPericenter=273.4909
orbit_AscendingNode=97.2606
orbit_Eccentricity=0.051806
orbit_Epoch=2456800.5
orbit_Inclination=17.1422
orbit_MeanAnomaly=100.2375
orbit_MeanMotion=0.0034705
orbit_SemiMajorAxis=43.20608
orbit_visualization_period=103536.97
parent=Sun
radius=654
slope_parameter=0.15
tex_map=nomap.png
type=plutoid

[2012da14]
absolute_magnitude=24.4
albedo=0.15
color=1., 1., 1.
coord_func=comet_orbit
lighting=true
name=2012 DA14
orbit_ArgOfPericenter=195.606
orbit_AscendingNode=146.9959
orbit_Eccentricity=0.089672
orbit_Epoch=2456400.5
orbit_Inclination=11.6062
orbit_MeanAnomaly=231.0252
orbit_MeanMotion=1.1351258
orbit_SemiMajorAxis=0.910137
parent=Sun
radius=1
slope_parameter=0.15
tex_map=nomap.png
type=asteroid

[2250882007or10]
absolute_magnitude=2
albedo=0.19
color=1., 1., 1.
coord_func=comet_orbit
lighting=true
minor_planet_number=225088
name=2007 OR10
orbit_ArgOfPericenter=206.6316
orbit_AscendingNode=336.8181
orbit_Eccentricity=0.505217
orbit_Epoch=2456800.5
orbit_Inclination=30.9206
orbit_MeanAnomaly=103.6013
orbit_MeanMotion=0.0018036
orbit_SemiMajorAxis=66.84073
orbit_visualization_period=200098.38
parent=Sun
radius=1367
slope_parameter=0.15
tex_map=nomap.png
type=plutoid

[2pallas]
absolute_magnitude=4.13
albedo=0.159
color=1., 1., 1.
coord_func=comet_orbit
halo=true
lighting=true
minor_planet_number=2
name=Pallas
oblateness=0.0
orbit_ArgOfPericenter=309.93369
orbit_AscendingNode=173.10236
orbit_Eccentricity=0.2315651
orbit_Epoch=2456600.5
orbit_Inclination=34.83626
orbit_MeanAnomaly=352.77905
orbit_MeanMotion=0.21350707
orbit_SemiMajorAxis=2.772434
orbit_visualization_period=1686.333
parent=Sun
radius=220
slope_parameter=0.11
tex_halo=star16x16.png
tex_map=nomap.png
type=asteroid

[3200phaethon]
absolute_magnitude=14.6
albedo=0.15
color=1., 1., 1.
coord_func=comet_orbit
lighting=false
minor_planet_number=3200
name=Phaethon
orbit_ArgOfPericenter=322.1483
orbit_AscendingNode=265.2631
orbit_Eccentricity=0.889857
orbit_Epoch=2456800.5
orbit_Inclination=22.2412
orbit_MeanAnomaly=156.2022
orbit_MeanMotion=0.6877394
orbit_SemiMajorAxis=1.271121
parent=Sun
radius=5
slope_parameter=0.15
tex_map=nomap.png
type=asteroid

[367943duende]
absolute_magnitude=24
albedo=0.15
color=1., 1., 1.
coord_func=comet_orbit
lighting=false
minor_planet_number=367943
name=Duende
orbit_ArgOfPericenter=195.5547
orbit_AscendingNode=146.969
orbit_Eccentricity=0.089406
orbit_Epoch=2456800.5
orbit_Inclination=11.6091
orbit_MeanAnomaly=325.0442
orbit_MeanMotion=1.134834
orbit_SemiMajorAxis=0.910293
parent=Sun
radius=1
slope_parameter=0.15
tex_map=nomap.png
type=asteroid

[3juno]
absolute_magnitude=5.33
albedo=0.238
color=1., 1., 1.
coord_func=comet_orbit
halo=true
lighting=true
minor_planet_number=3
name=Juno
oblateness=0.0
orbit_ArgOfPericenter=248.3798
orbit_AscendingNode=169.8776
orbit_Eccentricity=0.255221
orbit_Epoch=2456800.5
orbit_Inclination=12.9814
orbit_MeanAnomaly=347.9223
orbit_MeanMotion=0.2259288
orbit_SemiMajorAxis=2.669859
orbit_visualization_period=1591.93
parent=Sun
radius=130
slope_parameter=0.32
tex_halo=star16x16.png
tex_map=nomap.png
type=asteroid

[433eros]
absolute_magnitude=11.16
albedo=0.15
color=1., 0.849, 0.718
coord_func=comet_orbit
lighting=false
minor_planet_number=433
name=Eros
orbit_ArgOfPericenter=178.7833
orbit_AscendingNode=304.3353
orbit_Eccentricity=0.222633
orbit_Epoch=2456800.5
orbit_Inclination=10.829
orbit_MeanAnomaly=119.4459
orbit_MeanMotion=0.5598651
orbit_SemiMajorAxis=1.457965
parent=Sun
radius=21
slope_parameter=0.46
tex_map=eros.png
type=asteroid

[4vesta]
absolute_magnitude=3.2
albedo=0.423
color=1., 1., 1.
coord_func=comet_orbit
halo=true
lighting=true
minor_planet_number=4
name=Vesta
oblateness=0.0
orbit_ArgOfPericenter=151.19946
orbit_AscendingNode=103.85153
orbit_Eccentricity=0.0885024
orbit_Epoch=2456600.5
orbit_Inclination=7.14052
orbit_MeanAnomaly=272.21534
orbit_MeanMotion=0.27161523
orbit_SemiMajorAxis=2.3613841
orbit_visualization_period=1325.46
parent=Sun
radius=280
slope_parameter=0.32
tex_halo=star16x16.png
tex_map=vesta.png
type=asteroid

[50000quaoar]
absolute_magnitude=2.4
albedo=0.16
color=1., 1., 1.
coord_func=comet_orbit
lighting=true
minor_planet_number=50000
name=Quaoar
orbit_ArgOfPericenter=161.2425
orbit_AscendingNode=188.8733
orbit_Eccentricity=0.035121
orbit_Epoch=2456800.5
orbit_Inclination=7.9901
orbit_MeanAnomaly=279.4985
orbit_MeanMotion=0.0034688
orbit_SemiMajorAxis=43.21969
orbit_visualization_period=103783.57
parent=Sun
radius=1037
slope_parameter=0.15
tex_map=nomap.png
type=plutoid

[67pchuryumovgerasimenko]
absolute_magnitude=11
albedo=1
color=1., 1., 1.
coord_func=comet_orbit
dust_brightnessfactor=1.5
dust_lengthfactor=0.4
dust_widthfactor=1.5
lighting=false
name=67P/Churyumov-Gerasimenko
orbit_ArgOfPericenter=12.7758
orbit_AscendingNode=50.1497
orbit_Eccentricity=0.641039
orbit_Inclination=7.0406
orbit_PericenterDistance=1.243152
orbit_TimeAtPericenter=2457247.54059028
orbit_good=1000
parent=Sun
radius=5
slope_parameter=4
tex_map=comet.png
type=comet

[90377sedna]
absolute_magnitude=1.5
albedo=0.32
color=1., 1., 1.
coord_func=comet_orbit
lighting=true
minor_planet_number=90377
name=Sedna
orbit_ArgOfPericenter=311.1831
orbit_AscendingNode=144.5319
orbit_Eccentricity=0.857097
orbit_Epoch=2456800.5
orbit_Inclination=11.9286
orbit_MeanAnomaly=358.1953
orbit_MeanMotion=8.01e-05
orbit_SemiMajorAxis=532.7838
orbit_visualization_period=4614318.98
parent=Sun
radius=1643
slope_parameter=0.15
tex_map=nomap.png
type=plutoid

[90482orcus]
absolute_magnitude=2.2
albedo=0.25
color=1., 1., 1.
coord_func=comet_orbit
lighting=true
minor_planet_number=90482
name=Orcus
orbit_ArgOfPericenter=73.5563
orbit_AscendingNode=268.4515
orbit_Eccentricity=0.219162
orbit_Epoch=2456800.5
orbit_Inclination=20.5478
orbit_MeanAnomaly=171.5607
orbit_MeanMotion=0.0039794
orbit_SemiMajorAxis=39.43867
orbit_visualization_period=89911.42
parent=Sun
radius=1190
slope_parameter=0.15
tex_map=nomap.png
type=plutoid

[99942apophis]
absolute_magnitude=19.2
albedo=0.15
color=1., 1., 1.
coord_func=comet_orbit
lighting=false
minor_planet_number=99942
name=Apophis
orbit_ArgOfPericenter=126.4407
orbit_AscendingNode=204.2091
orbit_Eccentricity=0.191193
orbit_Epoch=2456800.5
orbit_Inclination=3.3305
orbit_MeanAnomaly=320.7123
orbit_MeanMotion=1.1130768
orbit_SemiMajorAxis=0.922117
parent=Sun
radius=1
slope_parameter=0.15
tex_map=nomap.png
type=asteroid

